     2.11           N: GPS NAV DATA                         RINEX VERSION / TYPE
teqc  2020Oct7      UNAVCO Archive Ops  20230215 00:42:51UTCPGM / RUN BY / DATE
Linux 2.4.21-27.ELsmp|Opteron|gcc|Linux 64|=+               COMMENT
    2.7940D-08  1.4901D-08 -1.1921D-07  5.9605D-08          ION ALPHA
    1.4131D+05 -8.1920D+04  6.5536D+04 -4.5875D+05          ION BETA
    0.000000000000D+00 0.000000000000D+00   319488     2249 DELTA-UTC: A0,A1,T,W
                                                            END OF HEADER
23 23  2 14  8  0  0.0 6.098300218582D-06 1.591615728103D-12 0.000000000000D+00
    1.710000000000D+02-6.703125000000D+01 4.255177245212D-09-1.584441534258D+00
   -3.438442945480D-06 3.000430064276D-03 8.426606655121D-06 5.153648990631D+03
    2.016000000000D+05 7.264316082001D-08-1.134262357529D+00-1.490116119385D-08
    9.722304273569D-01 2.237187500000D+02-3.099096744219D+00-7.853898574972D-09
    2.932264997750D-10 1.000000000000D+00 2.249000000000D+03 0.000000000000D+00
    2.000000000000D+00 0.000000000000D+00-8.381903171539D-09 6.830000000000D+02
    1.944180000000D+05 4.000000000000D+00
18 23  2 14  8  0  0.0-1.400304026902D-04-1.580247044330D-11 0.000000000000D+00
    1.170000000000D+02-6.928125000000D+01 4.228390415147D-09-5.564769080454D-01
   -3.604218363762D-06 2.969863009639D-03 5.053356289864D-06 5.153696525574D+03
    2.016000000000D+05 9.313225746155D-08-2.134236565440D+00 1.862645149231D-09
    9.732562576983D-01 2.876562500000D+02-3.110503170611D+00-8.107123408517D-09
   -1.428630936784D-12 1.000000000000D+00 2.249000000000D+03 0.000000000000D+00
    2.000000000000D+00 0.000000000000D+00-8.381903171539D-09 3.730000000000D+02
    1.944180000000D+05 4.000000000000D+00
15 23  2 14  8  0  0.0 1.332396641374D-05 3.296918293927D-12 0.000000000000D+00
    5.000000000000D+01-2.250000000000D+01 5.545588138863D-09 5.758396045909D-01
   -9.052455425262D-07 1.474339305423D-02 7.586553692818D-06 5.153669822693D+03
    2.016000000000D+05-1.695007085800D-07-1.952667883655D-01 5.215406417847D-08
    9.321443507538D-01 2.216875000000D+02 1.179048427117D+00-8.653574741837D-09
    9.393248409357D-11 1.000000000000D+00 2.249000000000D+03 0.000000000000D+00
    2.000000000000D+00 0.000000000000D+00-1.071020960808D-08 5.000000000000D+01
    1.944180000000D+05 4.000000000000D+00
10 23  2 14  8  0  0.0-2.463907003403D-05-1.591615728103D-12 0.000000000000D+00
    4.300000000000D+01-6.956250000000D+01 4.113742782471D-09-2.767183784175D+00
   -3.639608621597D-06 8.463320205919D-03 8.579343557358D-06 5.153687702179D+03
    2.016000000000D+05 5.587935447693D-08-1.107563510100D+00-1.695007085800D-07
    9.771253834343D-01 2.235312500000D+02-2.442551251001D+00-7.674605392405D-09
    2.671539851787D-10 1.000000000000D+00 2.249000000000D+03 0.000000000000D+00
    2.000000000000D+00 0.000000000000D+00 2.328306436539D-09 4.300000000000D+01
    1.944180000000D+05 4.000000000000D+00
29 23  2 14  8  0  0.0-5.860286764801D-04-2.046363078989D-12 0.000000000000D+00
    1.150000000000D+02 4.800000000000D+01 4.158387499245D-09 1.584884093310D+00
    2.468004822731D-06 2.185790799558D-03 3.799796104431D-06 5.153584533691D+03
    2.016000000000D+05-7.450580596924D-09-3.124034879038D+00 2.980232238770D-08
    9.780983951184D-01 3.148437500000D+02 2.395603722877D+00-8.133195923113D-09
    5.893102614235D-11 1.000000000000D+00 2.249000000000D+03 0.000000000000D+00
    2.800000000000D+00 0.000000000000D+00-1.024454832077D-08 1.150000000000D+02
    1.944180000000D+05 4.000000000000D+00
13 23  2 14  8  0  0.0 4.758504219353D-04 6.139089236967D-12 0.000000000000D+00
    7.400000000000D+01-1.909375000000D+01 4.629835708384D-09 1.085433598678D+00
   -8.828938007355D-07 6.773945875466D-03 7.539987564087D-06 5.153661731720D+03
    2.016000000000D+05-7.450580596924D-08 7.895005046079D-02 8.009374141693D-08
    9.698506005018D-01 2.399687500000D+02 9.361707884596D-01-8.024262814183D-09
    6.428839215530D-12 1.000000000000D+00 2.249000000000D+03 0.000000000000D+00
    2.000000000000D+00 0.000000000000D+00-1.117587089539D-08 7.400000000000D+01
    1.944180000000D+05 4.000000000000D+00
32 23  2 14  8  0  0.0-3.956789150834D-04-1.159605744760D-11 0.000000000000D+00
    1.500000000000D+01-1.787500000000D+01 4.682695053045D-09 2.236202205723D+00
   -1.067295670509D-06 6.609881296754D-03 7.722526788712D-06 5.153705307007D+03
    2.016000000000D+05-7.450580596924D-08-6.690212132475D-02-1.695007085800D-07
    9.596353595446D-01 2.307812500000D+02-2.257858137540D+00-7.949616847736D-09
    1.685784505406D-10 1.000000000000D+00 2.249000000000D+03 0.000000000000D+00
    2.000000000000D+00 0.000000000000D+00 4.656612873077D-10 1.500000000000D+01
    1.978980000000D+05 4.000000000000D+00
24 23  2 14  8  0  0.0-7.308693602681D-05-1.602984411875D-11 0.000000000000D+00
    4.200000000000D+01 7.031250000000D+00 5.386652947145D-09-3.977388988502D-01
    4.488974809647D-07 1.372082566377D-02 8.197501301765D-06 5.153656665802D+03
    2.016000000000D+05 2.793967723846D-08 9.028578514021D-01 1.676380634308D-07
    9.339687939263D-01 2.063750000000D+02 8.845099577215D-01-8.554642049465D-09
   -3.403713206889D-10 1.000000000000D+00 2.249000000000D+03 0.000000000000D+00
    2.000000000000D+00 0.000000000000D+00 2.328306436539D-09 4.200000000000D+01
    1.981260000000D+05 4.000000000000D+00
 8 23  2 14  8  0  0.0-1.084287650883D-04-1.818989403546D-12 0.000000000000D+00
    9.500000000000D+01 5.218750000000D+01 4.520902599454D-09 1.554587656759D+00
    2.775341272354D-06 8.324413443916D-03 4.334375262260D-06 5.153663318634D+03
    2.016000000000D+05 2.421438694000D-08 3.057913439558D+00 1.396983861923D-07
    9.603801998959D-01 2.945937500000D+02 2.139902570046D-01-8.312131947945D-09
   -5.964534161075D-11 1.000000000000D+00 2.249000000000D+03 0.000000000000D+00
    2.000000000000D+00 0.000000000000D+00 5.122274160385D-09 9.500000000000D+01
    1.987080000000D+05 4.000000000000D+00
16 23  2 14  7 59 44.0-5.201357416809D-04 1.705302565824D-12 0.000000000000D+00
    7.000000000000D+00 7.896875000000D+01 4.239819462642D-09 2.360365388133D+00
    3.978610038757D-06 1.339397439733D-02 8.493661880493D-06 5.153790246964D+03
    2.015840000000D+05-1.080334186554D-07 2.124944520880D+00-2.384185791016D-07
    9.659337850993D-01 2.193437500000D+02 7.627611504407D-01-7.816754170616D-09
   -8.071764792832D-11 1.000000000000D+00 2.249000000000D+03 0.000000000000D+00
    2.000000000000D+00 0.000000000000D+00-1.024454832077D-08 7.000000000000D+00
    1.992660000000D+05 4.000000000000D+00
27 23  2 14 10  0  0.0 1.026908867061D-04-8.981260180008D-12 0.000000000000D+00
    7.900000000000D+01 5.984375000000D+01 4.254820087478D-09 2.610595045945D+00
    3.011897206306D-06 1.133133284748D-02 4.397705197334D-06 5.153666231155D+03
    2.088000000000D+05-1.024454832077D-07 3.080318404449D+00-1.434236764908D-07
    9.692419505091D-01 2.998125000000D+02 6.977371087169D-01-8.039263439020D-09
    8.464638300447D-11 1.000000000000D+00 2.249000000000D+03 0.000000000000D+00
    2.000000000000D+00 0.000000000000D+00 1.862645149231D-09 7.900000000000D+01
    2.016180000000D+05 4.000000000000D+00
 8 23  2 14 10  0  0.0-1.084418036044D-04-1.818989403546D-12 0.000000000000D+00
    1.900000000000D+02 6.456250000000D+01 4.501258924073D-09 2.604943895809D+00
    3.356486558914D-06 8.325375034474D-03 4.434958100319D-06 5.153660150528D+03
    2.088000000000D+05-1.341104507446D-07 3.057853236090D+00-7.450580596924D-09
    9.603807031397D-01 2.937500000000D+02 2.138225363726D-01-8.168197381064D-09
    6.357407668690D-11 1.000000000000D+00 2.249000000000D+03 0.000000000000D+00
    2.000000000000D+00 0.000000000000D+00 5.122274160385D-09 1.900000000000D+02
    2.016180000000D+05 4.000000000000D+00
24 23  2 14 10  0  0.0-7.320242002606D-05-1.602984411875D-11 0.000000000000D+00
    4.300000000000D+01 8.500000000000D+00 5.373438110980D-09 6.524575968607D-01
    6.221234798431D-07 1.372104999609D-02 8.292496204376D-06 5.153657102585D+03
    2.088000000000D+05-1.173466444016D-07 9.027970101021D-01 1.341104507446D-07
    9.339662104129D-01 2.059375000000D+02 8.845104916866D-01-8.493210919183D-09
   -4.407326439980D-10 1.000000000000D+00 2.249000000000D+03 0.000000000000D+00
    2.000000000000D+00 0.000000000000D+00 2.328306436539D-09 4.300000000000D+01
    2.016180000000D+05 4.000000000000D+00
 2 23  2 14 10  0  0.0-6.209230050445D-04 2.501110429876D-12 0.000000000000D+00
    3.100000000000D+01-6.618750000000D+01 4.496258715795D-09-6.200459592430D-01
   -3.507360816002D-06 2.001731039491D-02 5.433335900307D-06 5.153687662125D+03
    2.088000000000D+05-2.719461917877D-07-2.233538973601D+00 6.519258022308D-08
    9.671020700145D-01 2.829687500000D+02-1.327482094866D+00-8.559999415478D-09
    1.157191058795D-10 1.000000000000D+00 2.249000000000D+03 0.000000000000D+00
    2.000000000000D+00 0.000000000000D+00-1.769512891769D-08 3.100000000000D+01
    2.016180000000D+05 4.000000000000D+00
23 23  2 14 10  0  0.0 6.109941750765D-06 1.591615728103D-12 0.000000000000D+00
    1.720000000000D+02-7.328125000000D+01 4.209818212969D-09-5.338413009530D-01
   -3.756955265999D-06 3.000812605023D-03 8.789822459221D-06 5.153651355743D+03
    2.088000000000D+05 2.793967723846D-08-1.134319009031D+00 2.980232238770D-08
    9.722327592483D-01 2.161562500000D+02-3.099504026464D+00-7.843183842946D-09
    3.292994309288D-10 1.000000000000D+00 2.249000000000D+03 0.000000000000D+00
    2.000000000000D+00 0.000000000000D+00-8.381903171539D-09 6.840000000000D+02
    2.016180000000D+05 4.000000000000D+00
